CCSDS_OMM_VERS = 2.0
CREATION_DATE  = 
ORIGINATOR     = 

OBJECT_NAME    = STARLINK-36198
OBJECT_ID      = 2025-303E
CENTER_NAME    = EARTH
REF_FRAME      = TEME
TIME_SYSTEM    = UTC
MEAN_ELEMENT_THEORY = SGP/SGP4

EPOCH          = 2026-01-15T14:00:01.999872
MEAN_MOTION    = 15.40661305
ECCENTRICITY   = .00016054
INCLINATION    = 42.9986
RA_OF_ASC_NODE = 254.2554
ARG_OF_PERICENTER = 269.6163
MEAN_ANOMALY   = 11.6386

EPHEMERIS_TYPE = 0
CLASSIFICATION_TYPE = U
NORAD_CAT_ID   = 67167
ELEMENT_SET_NO = 999
REV_AT_EPOCH   = 590
BSTAR          = .12691727E-2
MEAN_MOTION_DOT = .53014E-3
MEAN_MOTION_DDOT = 0

CCSDS_OMM_VERS = 2.0
CREATION_DATE  = 
ORIGINATOR     = 

OBJECT_NAME    = STARLINK-35903
OBJECT_ID      = 2025-303F
CENTER_NAME    = EARTH
REF_FRAME      = TEME
TIME_SYSTEM    = UTC
MEAN_ELEMENT_THEORY = SGP/SGP4

EPOCH          = 2026-01-15T14:00:01.999872
MEAN_MOTION    = 15.40669260
ECCENTRICITY   = .00009615
INCLINATION    = 42.9987
RA_OF_ASC_NODE = 254.3154
ARG_OF_PERICENTER = 282.5824
MEAN_ANOMALY   = 333.7761

EPHEMERIS_TYPE = 0
CLASSIFICATION_TYPE = U
NORAD_CAT_ID   = 67168
ELEMENT_SET_NO = 999
REV_AT_EPOCH   = 586
BSTAR          = .11972301E-2
MEAN_MOTION_DOT = .49984E-3
MEAN_MOTION_DDOT = 0

CCSDS_OMM_VERS = 2.0
CREATION_DATE  = 
ORIGINATOR     = 

OBJECT_NAME    = STARLINK-35839
OBJECT_ID      = 2025-303G
CENTER_NAME    = EARTH
REF_FRAME      = TEME
TIME_SYSTEM    = UTC
MEAN_ELEMENT_THEORY = SGP/SGP4

EPOCH          = 2026-01-15T14:00:01.999872
MEAN_MOTION    = 15.40669561
ECCENTRICITY   = .00015963
INCLINATION    = 42.9988
RA_OF_ASC_NODE = 254.1950
ARG_OF_PERICENTER = 260.5704
MEAN_ANOMALY   = 45.5505

EPHEMERIS_TYPE = 0
CLASSIFICATION_TYPE = U
NORAD_CAT_ID   = 67169
ELEMENT_SET_NO = 999
REV_AT_EPOCH   = 561
BSTAR          = .12693277E-2
MEAN_MOTION_DOT = .53035E-3
MEAN_MOTION_DDOT = 0

CCSDS_OMM_VERS = 2.0
CREATION_DATE  = 
ORIGINATOR     = 

OBJECT_NAME    = STARLINK-35863
OBJECT_ID      = 2025-303H
CENTER_NAME    = EARTH
REF_FRAME      = TEME
TIME_SYSTEM    = UTC
MEAN_ELEMENT_THEORY = SGP/SGP4

EPOCH          = 2026-01-15T14:00:01.999872
MEAN_MOTION    = 15.40668539
ECCENTRICITY   = .00018356
INCLINATION    = 42.9989
RA_OF_ASC_NODE = 254.1346
ARG_OF_PERICENTER = 253.6731
MEAN_ANOMALY   = 77.3273

EPHEMERIS_TYPE = 0
CLASSIFICATION_TYPE = U
NORAD_CAT_ID   = 67170
ELEMENT_SET_NO = 999
REV_AT_EPOCH   = 586
BSTAR          = .12819737E-2
MEAN_MOTION_DOT = .53569E-3
MEAN_MOTION_DDOT = 0

CCSDS_OMM_VERS = 2.0
CREATION_DATE  = 
ORIGINATOR     = 

OBJECT_NAME    = STARLINK-35771
OBJECT_ID      = 2025-303J
CENTER_NAME    = EARTH
REF_FRAME      = TEME
TIME_SYSTEM    = UTC
MEAN_ELEMENT_THEORY = SGP/SGP4

EPOCH          = 2026-01-15T14:00:01.999872
MEAN_MOTION    = 15.40667066
ECCENTRICITY   = .00013358
INCLINATION    = 42.9985
RA_OF_ASC_NODE = 254.2253
ARG_OF_PERICENTER = 256.4297
MEAN_ANOMALY   = 37.2520

EPHEMERIS_TYPE = 0
CLASSIFICATION_TYPE = U
NORAD_CAT_ID   = 67171
ELEMENT_SET_NO = 999
REV_AT_EPOCH   = 561
BSTAR          = .12325908E-2
MEAN_MOTION_DOT = .51476E-3
MEAN_MOTION_DDOT = 0

CCSDS_OMM_VERS = 2.0
CREATION_DATE  = 
ORIGINATOR     = 

OBJECT_NAME    = STARLINK-35762
OBJECT_ID      = 2025-303K
CENTER_NAME    = EARTH
REF_FRAME      = TEME
TIME_SYSTEM    = UTC
MEAN_ELEMENT_THEORY = SGP/SGP4

EPOCH          = 2026-01-15T14:00:01.999872
MEAN_MOTION    = 15.40668998
ECCENTRICITY   = .0001414
INCLINATION    = 42.9988
RA_OF_ASC_NODE = 254.1645
ARG_OF_PERICENTER = 250.3889
MEAN_ANOMALY   = 68.1705

EPHEMERIS_TYPE = 0
CLASSIFICATION_TYPE = U
NORAD_CAT_ID   = 67172
ELEMENT_SET_NO = 999
REV_AT_EPOCH   = 561
BSTAR          = .13076197E-2
MEAN_MOTION_DOT = .54655E-3
MEAN_MOTION_DDOT = 0

CCSDS_OMM_VERS = 2.0
CREATION_DATE  = 
ORIGINATOR     = 

OBJECT_NAME    = STARLINK-36183
OBJECT_ID      = 2025-303L
CENTER_NAME    = EARTH
REF_FRAME      = TEME
TIME_SYSTEM    = UTC
MEAN_ELEMENT_THEORY = SGP/SGP4

EPOCH          = 2026-01-15T14:00:01.999872
MEAN_MOTION    = 15.40666112
ECCENTRICITY   = .00016209
INCLINATION    = 42.9991
RA_OF_ASC_NODE = 254.1039
ARG_OF_PERICENTER = 254.1773
MEAN_ANOMALY   = 89.2634

EPHEMERIS_TYPE = 0
CLASSIFICATION_TYPE = U
NORAD_CAT_ID   = 67173
ELEMENT_SET_NO = 999
REV_AT_EPOCH   = 590
BSTAR          = .12764927E-2
MEAN_MOTION_DOT = .53332E-3
MEAN_MOTION_DDOT = 0

CCSDS_OMM_VERS = 2.0
CREATION_DATE  = 
ORIGINATOR     = 

OBJECT_NAME    = STARLINK-36210
OBJECT_ID      = 2025-303M
CENTER_NAME    = EARTH
REF_FRAME      = TEME
TIME_SYSTEM    = UTC
MEAN_ELEMENT_THEORY = SGP/SGP4

EPOCH          = 2026-01-15T14:00:01.999872
MEAN_MOTION    = 15.40666902
ECCENTRICITY   = .00015098
INCLINATION    = 42.9992
RA_OF_ASC_NODE = 254.0736
ARG_OF_PERICENTER = 254.3870
MEAN_ANOMALY   = 101.4931

EPHEMERIS_TYPE = 0
CLASSIFICATION_TYPE = U
NORAD_CAT_ID   = 67174
ELEMENT_SET_NO = 999
REV_AT_EPOCH   = 590
BSTAR          = .13043258E-2
MEAN_MOTION_DOT = .54512E-3
MEAN_MOTION_DDOT = 0

CCSDS_OMM_VERS = 2.0
CREATION_DATE  = 
ORIGINATOR     = 

OBJECT_NAME    = STARLINK-35756
OBJECT_ID      = 2025-303N
CENTER_NAME    = EARTH
REF_FRAME      = TEME
TIME_SYSTEM    = UTC
MEAN_ELEMENT_THEORY = SGP/SGP4

EPOCH          = 2026-01-15T14:00:01.999872
MEAN_MOTION    = 15.40701658
ECCENTRICITY   = .00023278
INCLINATION    = 42.9995
RA_OF_ASC_NODE = 254.0139
ARG_OF_PERICENTER = 248.1256
MEAN_ANOMALY   = 132.5583

EPHEMERIS_TYPE = 0
CLASSIFICATION_TYPE = U
NORAD_CAT_ID   = 67175
ELEMENT_SET_NO = 999
REV_AT_EPOCH   = 566
BSTAR          = .17086384E-2
MEAN_MOTION_DOT = .71751E-3
MEAN_MOTION_DDOT = 0

CCSDS_OMM_VERS = 2.0
CREATION_DATE  = 
ORIGINATOR     = 

OBJECT_NAME    = STARLINK-35785
OBJECT_ID      = 2025-303P
CENTER_NAME    = EARTH
REF_FRAME      = TEME
TIME_SYSTEM    = UTC
MEAN_ELEMENT_THEORY = SGP/SGP4

EPOCH          = 2026-01-15T14:00:01.999872
MEAN_MOTION    = 15.40702274
ECCENTRICITY   = .00019808
INCLINATION    = 42.9994
RA_OF_ASC_NODE = 254.0440
ARG_OF_PERICENTER = 265.8001
MEAN_ANOMALY   = 102.4448

EPHEMERIS_TYPE = 0
CLASSIFICATION_TYPE = U
NORAD_CAT_ID   = 67176
ELEMENT_SET_NO = 999
REV_AT_EPOCH   = 561
BSTAR          = .16437807E-2
MEAN_MOTION_DOT = .68991E-3
MEAN_MOTION_DDOT = 0

CCSDS_OMM_VERS = 2.0
CREATION_DATE  = 
ORIGINATOR     = 

OBJECT_NAME    = STARLINK-35853
OBJECT_ID      = 2025-303Q
CENTER_NAME    = EARTH
REF_FRAME      = TEME
TIME_SYSTEM    = UTC
MEAN_ELEMENT_THEORY = SGP/SGP4

EPOCH          = 2026-01-15T14:00:01.999872
MEAN_MOTION    = 15.40694024
ECCENTRICITY   = .00018719
INCLINATION    = 42.9993
RA_OF_ASC_NODE = 253.9839
ARG_OF_PERICENTER = 239.4133
MEAN_ANOMALY   = 153.7261

EPHEMERIS_TYPE = 0
CLASSIFICATION_TYPE = U
NORAD_CAT_ID   = 67177
ELEMENT_SET_NO = 999
REV_AT_EPOCH   = 566
BSTAR          = .14916368E-2
MEAN_MOTION_DOT = .62506E-3
MEAN_MOTION_DDOT = 0

CCSDS_OMM_VERS = 2.0
CREATION_DATE  = 
ORIGINATOR     = 

OBJECT_NAME    = STARLINK-35878
OBJECT_ID      = 2025-303R
CENTER_NAME    = EARTH
REF_FRAME      = TEME
TIME_SYSTEM    = UTC
MEAN_ELEMENT_THEORY = SGP/SGP4

EPOCH          = 2026-01-15T14:00:01.999872
MEAN_MOTION    = 15.40677195
ECCENTRICITY   = .00015561
INCLINATION    = 42.9993
RA_OF_ASC_NODE = 253.9225
ARG_OF_PERICENTER = 253.4946
MEAN_ANOMALY   = 164.5678

EPHEMERIS_TYPE = 0
CLASSIFICATION_TYPE = U
NORAD_CAT_ID   = 67178
ELEMENT_SET_NO = 999
REV_AT_EPOCH   = 561
BSTAR          = .12231353E-2
MEAN_MOTION_DOT = .51094E-3
MEAN_MOTION_DDOT = 0

