STARLINK-36198          
1 67167U 25303E   26015.58335648  .00053014  00000+0  12692-2 0  9990
2 67167  42.9986 254.2554 0001605 269.6163  11.6386 15.40661305  5909
STARLINK-35903          
1 67168U 25303F   26015.58335648  .00049984  00000+0  11972-2 0  9992
2 67168  42.9987 254.3154 0000961 282.5824 333.7761 15.40669260  5868
STARLINK-35839          
1 67169U 25303G   26015.58335648  .00053035  00000+0  12693-2 0  9996
2 67169  42.9988 254.1950 0001596 260.5704  45.5505 15.40669561  5611
STARLINK-35863          
1 67170U 25303H   26015.58335648  .00053569  00000+0  12820-2 0  9992
2 67170  42.9989 254.1346 0001835 253.6731  77.3273 15.40668539  5868
STARLINK-35771          
1 67171U 25303J   26015.58335648  .00051476  00000+0  12326-2 0  9999
2 67171  42.9985 254.2253 0001335 256.4297  37.2520 15.40667066  5613
STARLINK-35762          
1 67172U 25303K   26015.58335648  .00054655  00000+0  13076-2 0  9995
2 67172  42.9988 254.1645 0001414 250.3889  68.1705 15.40668998  5612
STARLINK-36183          
1 67173U 25303L   26015.58335648  .00053332  00000+0  12765-2 0  9991
2 67173  42.9991 254.1039 0001620 254.1773  89.2634 15.40666112  5900
STARLINK-36210          
1 67174U 25303M   26015.58335648  .00054512  00000+0  13043-2 0  9993
2 67174  42.9992 254.0736 0001509 254.3870 101.4931 15.40666902  5905
STARLINK-35756          
1 67175U 25303N   26015.58335648  .00071751  00000+0  17086-2 0  9999
2 67175  42.9995 254.0139 0002327 248.1256 132.5583 15.40701658  5663
STARLINK-35785          
1 67176U 25303P   26015.58335648  .00068991  00000+0  16438-2 0  9992
2 67176  42.9994 254.0440 0001980 265.8001 102.4448 15.40702274  5612
STARLINK-35853          
1 67177U 25303Q   26015.58335648  .00062506  00000+0  14916-2 0  9998
2 67177  42.9993 253.9839 0001871 239.4133 153.7261 15.40694024  5664
STARLINK-35878          
1 67178U 25303R   26015.58335648  .00051094  00000+0  12231-2 0  9997
2 67178  42.9993 253.9225 0001556 253.4946 164.5678 15.40677195  5619
